IRIDIUM 57              
1 25273U 98019B   24135.47185887  .00001076  00000+0  36995-3 0  9997
2 25273  86.3927 312.2533 0002142  89.3089 270.8353 14.35198632367580
IRIDIUM 63              
1 25286U 98021B   24135.36908038  .00001385  00000+0  47262-3 0  9995
2 25286  86.3992 249.1724 0002314  96.9005 263.2455 14.35747890366606
IRIDIUM 69              
1 25319U 98026A   24135.60639152  .00001594  00000+0  50068-3 0  9992
2 25319  86.3965 263.5669 0000696 186.1192 173.9999 14.39972771365680
IRIDIUM 71              
1 25320U 98026B   24135.61373686  .00001548  00000+0  48265-3 0  9997
2 25320  86.3969 258.3293 0001730  29.8302 330.2995 14.40290304366207
IRIDIUM 73              
1 25344U 98032C   24135.49928421  .00001565  00000+0  39490-3 0  9998
2 25344  86.4464 215.8675 0001770 100.4486 259.6918 14.50512010372746
IRIDIUM 82              
1 25467U 98051A   24135.47188946  .00014169  00000+0  73089-3 0  9999
2 25467  86.3728 301.7619 0127972 345.5610  14.1981 15.09273925363402
